IRIDIUM 36 [-]          
1 24967U 97056C   23275.85595963  .00000948  00000+0  31726-3 0  9996
2 24967  86.3926  74.6891 0001939  94.4101 265.7317 14.36420783362707
IRIDIUM 39 [-]          
1 25042U 97069D   23275.84596880  .00000973  00000+0  25965-3 0  9999
2 25042  86.3883 118.1026 0016918 221.4744 138.5176 14.47378905358745
IRIDIUM 38 [-]          
1 25043U 97069E   23275.73657273  .00000638  00000+0  20934-3 0  9991
2 25043  86.3959 135.2585 0003148  42.8302 317.3140 14.36894558356398
IRIDIUM 42 [-]          
1 25077U 97077A   23275.90248739  .00000643  00000+0  21816-3 0  9995
2 25077  86.3975 140.5965 0002198  68.1866 291.9564 14.35210951351765
IRIDIUM 45 [-]          
1 25104U 97082A   23275.63774132  .00015159  00000+0  97374-3 0  9993
2 25104  86.3798 342.8881 0182891  94.7320 267.4822 14.95464018358125
IRIDIUM 24 [-]          
1 25105U 97082B   23275.63208609  .00000828  00000+0  25288-3 0  9997
2 25105  86.3956 344.3465 0010758 346.9842  13.1078 14.40752610353391
IRIDIUM 51 [-]          
1 25262U 98018A   23275.79720246  .00015858  00000+0  88032-3 0  9999
2 25262  86.3978 353.3727 0167626  49.8172 311.7598 15.02312643352516
